[{"OBJECT_NAME":"STARLINK-3098","OBJECT_ID":"2021-104AL","EPOCH":"2026-03-09T21:11:35.394720","MEAN_MOTION":15.08837919,"ECCENTRICITY":0.00012088,"INCLINATION":53.2166,"RA_OF_ASC_NODE":208.253,"ARG_OF_PERICENTER":92.3896,"MEAN_ANOMALY":267.7235,"EPHEMERIS_TYPE":0,"CLASSIFICATION_TYPE":"U","NORAD_CAT_ID":49442,"ELEMENT_SET_NO":999,"REV_AT_EPOCH":23894,"BSTAR":3.3643913e-5,"MEAN_MOTION_DOT":2.48e-6,"MEAN_MOTION_DDOT":0},{"OBJECT_NAME":"OBJECT R","OBJECT_ID":"2021-022R","EPOCH":"2026-03-09T22:54:37.456416","MEAN_MOTION":15.08912229,"ECCENTRICITY":0.00182027,"INCLINATION":97.3728,"RA_OF_ASC_NODE":308.5333,"ARG_OF_PERICENTER":149.1845,"MEAN_ANOMALY":211.0456,"EPHEMERIS_TYPE":0,"CLASSIFICATION_TYPE":"U","NORAD_CAT_ID":47947,"ELEMENT_SET_NO":999,"REV_AT_EPOCH":27304,"BSTAR":2.1057411e-5,"MEAN_MOTION_DOT":2.72e-6,"MEAN_MOTION_DDOT":0}]
